{
    "links": {
        "self": "http://www.neowsapp.com/rest/v1/neo/3797762?api_key=iIulBulltgU6a56xZRHN4H3l9WmuAYTsLGpBGhQ2"
    },
    "id": "3797762",
    "neo_reference_id": "3797762",
    "name": "(2018 AJ13)",
    "designation": "2018 AJ13",
    "nasa_jpl_url": "http://ssd.jpl.nasa.gov/sbdb.cgi?sstr=3797762",
    "absolute_magnitude_h": 24.719,
    "estimated_diameter": {
        "kilometers": {
            "estimated_diameter_min": 0.0302520616,
            "estimated_diameter_max": 0.0676456663
        },
        "meters": {
            "estimated_diameter_min": 30.252061639,
            "estimated_diameter_max": 67.6456662844
        },
        "miles": {
            "estimated_diameter_min": 0.0187977538,
            "estimated_diameter_max": 0.0420330553
        },
        "feet": {
            "estimated_diameter_min": 99.2521739078,
            "estimated_diameter_max": 221.9346077726
        }
    },
    "is_potentially_hazardous_asteroid": false,
    "close_approach_data": [
        {
            "close_approach_date": "2018-01-10",
            "close_approach_date_full": "2018-Jan-10 09:05",
            "epoch_date_close_approach": 1515575100000,
            "relative_velocity": {
                "kilometers_per_second": "17.8467723777",
                "kilometers_per_hour": "64248.380559671",
                "miles_per_hour": "39921.4451316467"
            },
            "miss_distance": {
                "astronomical": "0.0423479895",
                "lunar": "16.4733679155",
                "kilometers": "6335169.027982365",
                "miles": "3936491.496452037"
            },
            "orbiting_body": "Earth"
        }
    ],
    "orbital_data": {
        "orbit_id": "1",
        "orbit_determination_date": "2018-01-20 06:52:57",
        "first_observation_date": "2018-01-09",
        "last_observation_date": "2018-01-09",
        "data_arc_in_days": null,
        "observations_used": 9,
        "orbit_uncertainty": "9",
        "minimum_orbit_intersection": ".0127879",
        "jupiter_tisserand_invariant": "5.623",
        "epoch_osculation": "2458127.5",
        "eccentricity": ".5878029413327065",
        "semi_major_axis": "1.06330485690924",
        "inclination": "4.455185995173035",
        "ascending_node_longitude": "98.97791364809552",
        "orbital_period": "400.4839569654008",
        "perihelion_distance": ".438291134484636",
        "perihelion_argument": "129.4769013451464",
        "aphelion_distance": "1.688318579333844",
        "perihelion_time": "2458184.891364552808",
        "mean_anomaly": "308.410190022179",
        "mean_motion": ".8989124126914818",
        "equinox": "J2000",
        "orbit_class": {
            "orbit_class_type": "APO",
            "orbit_class_description": "Near-Earth asteroid orbits which cross the Earth’s orbit similar to that of 1862 Apollo",
            "orbit_class_range": "a (semi-major axis) > 1.0 AU; q (perihelion) < 1.017 AU"
        }
    },
    "is_sentry_object": false
}